[{"OBJECT_NAME":"HAWK-2C","OBJECT_ID":"2021-006CT","EPOCH":"2026-03-09T16:13:22.454976","MEAN_MOTION":15.33286436,"ECCENTRICITY":0.0006943,"INCLINATION":97.2417,"RA_OF_ASC_NODE":114.9961,"ARG_OF_PERICENTER":184.0877,"MEAN_ANOMALY":176.031,"EPHEMERIS_TYPE":0,"CLASSIFICATION_TYPE":"U","NORAD_CAT_ID":47502,"ELEMENT_SET_NO":999,"REV_AT_EPOCH":28424,"BSTAR":0.00025492914,"MEAN_MOTION_DOT":8.129e-5,"MEAN_MOTION_DDOT":0},{"OBJECT_NAME":"STARLINK-31024","OBJECT_ID":"2024-011X","EPOCH":"2026-03-09T06:25:22.512288","MEAN_MOTION":15.30191356,"ECCENTRICITY":0.00011607,"INCLINATION":53.1619,"RA_OF_ASC_NODE":13.6627,"ARG_OF_PERICENTER":88.5246,"MEAN_ANOMALY":271.5888,"EPHEMERIS_TYPE":0,"CLASSIFICATION_TYPE":"U","NORAD_CAT_ID":58786,"ELEMENT_SET_NO":999,"REV_AT_EPOCH":12023,"BSTAR":7.42271e-6,"MEAN_MOTION_DOT":-1.39e-6,"MEAN_MOTION_DDOT":0}]
